KUIPER-00016            
1 63732U 25088J   25232.91670139 -.00142156  00000+0 -18727-1 0  9990
2 63732  51.9187 279.4152 0011310 125.9217  87.9296 14.80513380  5073
KUIPER-00018            
1 63733U 25088K   25232.83275316  .00006491  00000+0  38339-3 0  9992
2 63733  51.8784 271.5472 0011102 131.3383 228.8550 15.12617794 17700
KUIPER-00019            
1 63734U 25088L   25232.65943333 -.00145790  00000+0 -80218-2 0  9994
2 63734  51.8776 271.1614 0007421 141.0317 219.1196 15.14207855 17692
KUIPER-00020            
1 63735U 25088M   25232.91670139 -.00030057  00000+0 -21452-2 0  9999
2 63735  51.8886 272.4289 0008489 142.5155 333.7065 15.03876318  2447
KUIPER-00021            
1 63736U 25088N   25232.91670139  .00006538  00000+0  49509-3 0  9999
2 63736  51.8807 273.2303 0006492 126.9214  28.2845 15.03378632  5712
KUIPER-00023            
1 63737U 25088P   25232.91670139  .00008128  00000+0  68650-3 0  9995
2 63737  51.8882 274.3184 0010393 136.3593 221.3239 14.98843883  5064
KUIPER-00024            
1 63738U 25088Q   25232.91670139 -.00631899  00000+0 -26804-1 0  9998
2 63738  51.8794 267.1984 0003100 128.1755  63.8528 15.25019729  5146
KUIPER-00025            
1 63739U 25088R   25232.91670139 -.01049607  00000+0 -69724-1 0  9998
2 63739  51.8859 271.3401 0009547 134.0971 150.4650 15.09465943  5051
